{"type": "FeatureCollection", "features": [ {"type": "Feature", "properties": {"norad_id": 66605, "name": "STARLINK-36052", "group": "last-30-days", "lat": 10.362806354299476, "lon": 121.94260406714305, "alt_km": 442.33873092787326, "timestamp": "2025-12-26T21:25:51.731832+00:00", "meta": {"OBJECT_NAME": "STARLINK-36052", "OBJECT_ID": "2025-270T", "EPOCH": "2025-12-26T08:55:05.833920", "MEAN_MOTION": 15.40726118, "ECCENTRICITY": 0.00019411, "INCLINATION": 43.0005, "RA_OF_ASC_NODE": 113.6312, "ARG_OF_PERICENTER": 272.9658, "MEAN_ANOMALY": 87.0977, "EPHEMERIS_TYPE": 0, "CLASSIFICATION_TYPE": "U", "NORAD_CAT_ID": 66605, "ELEMENT_SET_NO": 999, "REV_AT_EPOCH": 645, "BSTAR": 0.0012180745, "MEAN_MOTION_DOT": 0.00050964, "MEAN_MOTION_DDOT": 0}, "tle": {"line1": "1 66605U 25270T   25360.37159530  .00050964  00000+0  12181-2 0  9996", "line2": "2 66605  43.0005 113.6312 0001941 272.9658  87.0977 15.40726118  6456"}}, "geometry": {"type": "Point", "coordinates": [121.94260406714305, 10.362806354299476]}}, {"type": "Feature", "properties": {"norad_id": 66606, "name": "STARLINK-36063", "group": "last-30-days", "lat": 41.75259095057207, "lon": -142.90227735148432, "alt_km": 438.7676553876772, "timestamp": "2025-12-26T21:25:51.731845+00:00", "meta": {"OBJECT_NAME": "STARLINK-36063", "OBJECT_ID": "2025-270U", "EPOCH": "2025-12-26T14:45:55.749312", "MEAN_MOTION": 15.40708054, "ECCENTRICITY": 0.00021332, "INCLINATION": 43.0001, "RA_OF_ASC_NODE": 112.0118, "ARG_OF_PERICENTER": 277.3138, "MEAN_ANOMALY": 82.7476, "EPHEMERIS_TYPE": 0, "CLASSIFICATION_TYPE": "U", "NORAD_CAT_ID": 66606, "ELEMENT_SET_NO": 999, "REV_AT_EPOCH": 649, "BSTAR": 0.0010041202, "MEAN_MOTION_DOT": 0.00041884, "MEAN_MOTION_DDOT": 0}, "tle": {"line1": "1 66606U 25270U   25360.61522858  .00041884  00000+0  10041-2 0  9995", "line2": "2 66606  43.0001 112.0118 0002133 277.3138  82.7476 15.40708054  6495"}}, "geometry": {"type": "Point", "coordinates": [-142.90227735148432, 41.75259095057207]}}, {"type": "Feature", "properties": {"norad_id": 66607, "name": "STARLINK-35993", "group": "last-30-days", "lat": 18.485009186371325, "lon": 131.61692871789705, "alt_km": 441.61436587047046, "timestamp": "2025-12-26T21:25:51.731856+00:00", "meta": {"OBJECT_NAME": "STARLINK-35993", "OBJECT_ID": "2025-270V", "EPOCH": "2025-12-26T15:05:16.667232", "MEAN_MOTION": 15.40730597, "ECCENTRICITY": 0.00025301, "INCLINATION": 43.0049, "RA_OF_ASC_NODE": 112.1205, "ARG_OF_PERICENTER": 272.959, "MEAN_ANOMALY": 87.0977, "EPHEMERIS_TYPE": 0, "CLASSIFICATION_TYPE": "U", "NORAD_CAT_ID": 66607, "ELEMENT_SET_NO": 999, "REV_AT_EPOCH": 639, "BSTAR": 0.0014337292, "MEAN_MOTION_DOT": 0.00060124, "MEAN_MOTION_DDOT": 0}, "tle": {"line1": "1 66607U 25270V   25360.62866513  .00060124  00000+0  14337-2 0  9996", "line2": "2 66607  43.0049 112.1205 0002530 272.9590  87.0977 15.40730597  6390"}}, "geometry": {"type": "Point", "coordinates": [131.61692871789705, 18.485009186371325]}}, {"type": "Feature", "properties": {"norad_id": 66608, "name": "STARLINK-36036", "group": "last-30-days", "lat": 38.24380681417285, "lon": -127.37571867703359, "alt_km": 439.03276655517675, "timestamp": "2025-12-26T21:25:51.731866+00:00", "meta": {"OBJECT_NAME": "STARLINK-36036", "OBJECT_ID": "2025-270W", "EPOCH": "2025-12-26T00:00:02.000160", "MEAN_MOTION": 15.40691202, "ECCENTRICITY": 0.00015514, "INCLINATION": 43.0003, "RA_OF_ASC_NODE": 115.5277, "ARG_OF_PERICENTER": 272.8529, "MEAN_ANOMALY": 283.3616, "EPHEMERIS_TYPE": 0, "CLASSIFICATION_TYPE": "U", "NORAD_CAT_ID": 66608, "ELEMENT_SET_NO": 999, "REV_AT_EPOCH": 604, "BSTAR": -0.00015885025, "MEAN_MOTION_DOT": -6.931e-05, "MEAN_MOTION_DDOT": 0}, "tle": {"line1": "1 66608U 25270W   25360.00002315 -.00006931  00000+0 -15885-3 0  9999", "line2": "2 66608  43.0003 115.5277 0001551 272.8529 283.3616 15.40691202  6042"}}, "geometry": {"type": "Point", "coordinates": [-127.37571867703359, 38.24380681417285]}}, {"type": "Feature", "properties": {"norad_id": 66609, "name": "STARLINK-36034", "group": "last-30-days", "lat": 26.095243963248947, "lon": -101.38492159389283, "alt_km": 440.9912629732544, "timestamp": "2025-12-26T21:25:51.731877+00:00", "meta": {"OBJECT_NAME": "STARLINK-36034", "OBJECT_ID": "2025-270X", "EPOCH": "2025-12-26T08:22:50.303712", "MEAN_MOTION": 15.4073362, "ECCENTRICITY": 0.00023885, "INCLINATION": 43.0009, "RA_OF_ASC_NODE": 113.4578, "ARG_OF_PERICENTER": 281.9385, "MEAN_ANOMALY": 78.1204, "EPHEMERIS_TYPE": 0, "CLASSIFICATION_TYPE": "U", "NORAD_CAT_ID": 66609, "ELEMENT_SET_NO": 999, "REV_AT_EPOCH": 629, "BSTAR": 0.0011610143, "MEAN_MOTION_DOT": 0.0004856, "MEAN_MOTION_DDOT": 0}, "tle": {"line1": "1 66609U 25270X   25360.34919333  .00048560  00000+0  11610-2 0  9997", "line2": "2 66609  43.0009 113.4578 0002388 281.9385  78.1204 15.40733620  6291"}}, "geometry": {"type": "Point", "coordinates": [-101.38492159389283, 26.095243963248947]}}, {"type": "Feature", "properties": {"norad_id": 66610, "name": "STARLINK-35680", "group": "last-30-days", "lat": 32.77579680487033, "lon": 154.23892667091198, "alt_km": 439.4000521572316, "timestamp": "2025-12-26T21:25:51.731887+00:00", "meta": {"OBJECT_NAME": "STARLINK-35680", "OBJECT_ID": "2025-270Y", "EPOCH": "2025-12-26T14:58:49.990944", "MEAN_MOTION": 15.40709304, "ECCENTRICITY": 0.00015601, "INCLINATION": 42.9985, "RA_OF_ASC_NODE": 112.0805, "ARG_OF_PERICENTER": 278.6419, "MEAN_ANOMALY": 81.4261, "EPHEMERIS_TYPE": 0, "CLASSIFICATION_TYPE": "U", "NORAD_CAT_ID": 66610, "ELEMENT_SET_NO": 999, "REV_AT_EPOCH": 660, "BSTAR": 0.0016796828, "MEAN_MOTION_DOT": 0.00070534, "MEAN_MOTION_DDOT": 0}, "tle": {"line1": "1 66610U 25270Y   25360.62418971  .00070534  00000+0  16797-2 0  9999", "line2": "2 66610  42.9985 112.0805 0001560 278.6419  81.4261 15.40709304  6601"}}, "geometry": {"type": "Point", "coordinates": [154.23892667091198, 32.77579680487033]}}, {"type": "Feature", "properties": {"norad_id": 66611, "name": "STARLINK-35583", "group": "last-30-days", "lat": 41.8263841640002, "lon": -175.7177308379753, "alt_km": 436.914753410485, "timestamp": "2025-12-26T21:25:51.731897+00:00", "meta": {"OBJECT_NAME": "STARLINK-35583", "OBJECT_ID": "2025-270Z", "EPOCH": "2025-12-25T17:05:26.222784", "MEAN_MOTION": 15.40757863, "ECCENTRICITY": 6.595e-05, "INCLINATION": 43.0004, "RA_OF_ASC_NODE": 117.2753, "ARG_OF_PERICENTER": 326.6033, "MEAN_ANOMALY": 33.4782, "EPHEMERIS_TYPE": 0, "CLASSIFICATION_TYPE": "U", "NORAD_CAT_ID": 66611, "ELEMENT_SET_NO": 999, "REV_AT_EPOCH": 646, "BSTAR": 0.001409315, "MEAN_MOTION_DOT": 0.00059138, "MEAN_MOTION_DDOT": 0}, "tle": {"line1": "1 66611U 25270Z   25359.71210906  .00059138  00000+0  14093-2 0  9990", "line2": "2 66611  43.0004 117.2753 0000659 326.6033  33.4782 15.40757863  6461"}}, "geometry": {"type": "Point", "coordinates": [-175.7177308379753, 41.8263841640002]}}, {"type": "Feature", "properties": {"norad_id": 66612, "name": "STARLINK-36039", "group": "last-30-days", "lat": -6.091258346468636, "lon": -62.34934182217663, "alt_km": 443.91474037587705, "timestamp": "2025-12-26T21:25:51.731908+00:00", "meta": {"OBJECT_NAME": "STARLINK-36039", "OBJECT_ID": "2025-270AA", "EPOCH": "2025-12-26T08:10:07.769280", "MEAN_MOTION": 15.40773881, "ECCENTRICITY": 0.00015633, "INCLINATION": 42.9999, "RA_OF_ASC_NODE": 114.2604, "ARG_OF_PERICENTER": 261.7567, "MEAN_ANOMALY": 98.3112, "EPHEMERIS_TYPE": 0, "CLASSIFICATION_TYPE": "U", "NORAD_CAT_ID": 66612, "ELEMENT_SET_NO": 999, "REV_AT_EPOCH": 644, "BSTAR": 0.0014141467, "MEAN_MOTION_DOT": 0.00059376, "MEAN_MOTION_DDOT": 0}, "tle": {"line1": "1 66612U 25270AA  25360.34036770  .00059376  00000+0  14141-2 0  9995", "line2": "2 66612  42.9999 114.2604 0001563 261.7567  98.3112 15.40773881  6444"}}, "geometry": {"type": "Point", "coordinates": [-62.34934182217663, -6.091258346468636]}}, {"type": "Feature", "properties": {"norad_id": 66613, "name": "STARLINK-36037", "group": "last-30-days", "lat": -22.25721714430265, "lon": -42.93643336711943, "alt_km": 445.26698741784, "timestamp": "2025-12-26T21:25:51.731919+00:00", "meta": {"OBJECT_NAME": "STARLINK-36037", "OBJECT_ID": "2025-270AB", "EPOCH": "2025-12-26T08:03:40.501152", "MEAN_MOTION": 15.40739356, "ECCENTRICITY": 0.00018679, "INCLINATION": 43.0033, "RA_OF_ASC_NODE": 114.2259, "ARG_OF_PERICENTER": 269.5191, "MEAN_ANOMALY": 90.5452, "EPHEMERIS_TYPE": 0, "CLASSIFICATION_TYPE": "U", "NORAD_CAT_ID": 66613, "ELEMENT_SET_NO": 999, "REV_AT_EPOCH": 644, "BSTAR": 0.0011510397, "MEAN_MOTION_DOT": 0.00048146, "MEAN_MOTION_DDOT": 0}, "tle": {"line1": "1 66613U 25270AB  25360.33588543  .00048146  00000+0  11510-2 0  9995", "line2": "2 66613  43.0033 114.2259 0001867 269.5191  90.5452 15.40739356  6448"}}, "geometry": {"type": "Point", "coordinates": [-42.93643336711943, -22.25721714430265]}}, {"type": "Feature", "properties": {"norad_id": 66614, "name": "STARLINK-36040", "group": "last-30-days", "lat": -22.690874095589674, "lon": 84.08319956318623, "alt_km": 443.04101380249904, "timestamp": "2025-12-26T21:25:51.731929+00:00", "meta": {"OBJECT_NAME": "STARLINK-36040", "OBJECT_ID": "2025-270AC", "EPOCH": "2025-12-26T09:08:00.228480", "MEAN_MOTION": 15.4074557, "ECCENTRICITY": 0.00045951, "INCLINATION": 43.0006, "RA_OF_ASC_NODE": 113.6966, "ARG_OF_PERICENTER": 300.1941, "MEAN_ANOMALY": 59.846, "EPHEMERIS_TYPE": 0, "CLASSIFICATION_TYPE": "U", "NORAD_CAT_ID": 66614, "ELEMENT_SET_NO": 999, "REV_AT_EPOCH": 629, "BSTAR": 0.0011495123, "MEAN_MOTION_DOT": 0.00048103, "MEAN_MOTION_DDOT": 0}, "tle": {"line1": "1 66614U 25270AC  25360.38055820  .00048103  00000+0  11495-2 0  9993", "line2": "2 66614  43.0006 113.6966 0004595 300.1941  59.8460 15.40745570  6298"}}, "geometry": {"type": "Point", "coordinates": [84.08319956318623, -22.690874095589674]}}]}